COSMOS 2425 (716)       
1 29670U 06062A   21242.62883887  .00000082  00000-0  00000-0 0  9999
2 29670  64.8263 252.9422 0024118 340.3363 199.2605  2.13114853114252
COSMOS 2433 (720)       
1 32275U 07052A   21243.49430866 -.00000064  00000-0  00000-0 0  9996
2 32275  66.0719  14.2945 0002617 192.0561 101.5871  2.13104230107787
COSMOS 2432 (719)       
1 32276U 07052B   21243.17480113 -.00000064  00000-0  00000+0 0  9991
2 32276  66.0855  14.4012 0007619 332.4810  25.1451  2.13103611107776
COSMOS 2434 (721)       
1 32393U 07065A   21243.12476453  .00000086  00000-0  00000-0 0  9996
2 32393  64.4437 251.3502 0001097 172.9061  85.8429  2.13103044106484
COSMOS 2436 (723)       
1 32395U 07065C   21243.32410536  .00000087  00000-0  00000-0 0  9991
2 32395  64.4529 251.3980 0014087 349.5189 198.2274  2.13102937106425
COSMOS 2456 (730)       
1 36111U 09070A   21242.58713259 -.00000022  00000-0  00000-0 0  9994
2 36111  64.2875 131.0395 0003744 320.6344  55.2401  2.13099382 91147
COSMOS 2457 (733)       
1 36112U 09070B   21243.03723012 -.00000020  00000-0  00000-0 0  9992
2 36112  64.2695 130.9053 0004917 162.5131 323.6365  2.13101599 91153
COSMOS 2459 (731)       
1 36400U 10007A   21243.25823866 -.00000065  00000-0  00000-0 0  9995
2 36400  65.9681  13.2164 0024863 351.6045 339.6210  2.13108580 89496
COSMOS 2461 (735)       
1 36401U 10007B   21243.25609745 -.00000065  00000-0  00000-0 0  9994
2 36401  65.9630  13.1813 0018843  13.5588 315.1687  2.13103652 89502
COSMOS 2460 (732)       
1 36402U 10007C   21242.56368655 -.00000066  00000-0  00000-0 0  9991
2 36402  65.9506  13.1595 0002470 125.0124 338.0685  2.13106506 89497
COSMOS 2464 (736)       
1 37139U 10041C   21243.57958233  .00000088  00000-0  00000-0 0  9999
2 37139  64.0435 250.5533 0026620   5.2721 102.7594  2.13100728 85570
COSMOS 2471 (701K)      
1 37372U 11009A   21243.04742816 -.00000066  00000-0  00000-0 0  9990
2 37372  65.9449  13.0727 0015498 224.2667  27.0672  2.13062197 81775
COSMOS 2476 (744)       
1 37867U 11064A   21243.38926395 -.00000019  00000-0  00000-0 0  9991
2 37867  64.5803 132.2546 0020390 236.8330 297.3821  2.13101890 76506
COSMOS 2477 (745)       
1 37868U 11064B   21242.84540449 -.00000021  00000-0  00000-0 0  9997
2 37868  64.5891 132.3355 0017869 238.0570  57.2198  2.13101840 76448
COSMOS 2475 (743)       
1 37869U 11064C   21243.25048403 -.00000020  00000-0  00000-0 0  9996
2 37869  64.5967 132.3260 0021951 257.6621 306.1546  2.13102201 76466
COSMOS 2485 (747)       
1 39155U 13019A   21242.58400741 -.00000022  00000-0  00000-0 0  9992
2 39155  64.7468 132.6451 0020781 231.4811  89.4391  2.13102055 64957
COSMOS 2492 (754)       
1 39620U 14012A   21243.44413278 -.00000066  00000-0  00000-0 0  9996
2 39620  65.8381  12.8517 0010730 325.2305 330.2747  2.13103404 57925
COSMOS 2500 (755)       
1 40001U 14032A   21242.16534789 -.00000067  00000-0  00000-0 0  9993
2 40001  65.7778  12.7771 0007280 184.4306  69.4928  2.13102420 56111
COSMOS 2501 (702K)      
1 40315U 14075A   21243.38395701  .00000086  00000-0  00000-0 0  9992
2 40315  63.7540 251.3403 0018940 213.1399  62.3250  2.13101380 52541
COSMOS 2514 (751)       
1 41330U 16008A   21243.55676837 -.00000067  00000-0  00000-0 0  9999
2 41330  65.5796  12.4944 0010515 200.9227 223.7168  2.13102815 43312
COSMOS 2516 (753)       
1 41554U 16032A   21243.52068951  .00000087  00000-0  00000-0 0  9994
2 41554  63.9799 251.5301 0015892 221.6678  72.1841  2.13107154 40919
COSMOS 2522 (752)       
1 42939U 17055A   21243.31368766  .00000086  00000-0  00000-0 0  9991
2 42939  64.2130 251.8466 0010217 245.7236 110.9237  2.13101929 30663
COSMOS 2527 (756)       
1 43508U 18053A   21243.27688345 -.00000019  00000-0  00000-0 0  9993
2 43508  64.9097 132.5637 0007250 227.0328 133.4991  2.13102661 24965
COSMOS 2529 (757)       
1 43687U 18086A   21243.37857438  .00000087  00000-0  00000-0 0  9993
2 43687  64.4277 252.0829 0012264 264.9676  97.0298  2.13102151 21984
COSMOS 2534 (758)       
1 44299U 19030A   21243.58927094  .00000088  00000-0  00000-0 0  9993
2 44299  64.4984 251.9337 0014616 281.8629  16.5662  2.13101942 17624
COSMOS 2544 (759)       
1 44850U 19088A   21243.45680899 -.00000018  00000-0  00000-0 0  9998
2 44850  64.8945 132.4153 0011834 262.1396 280.1233  2.13102355 13391
COSMOS 2545 (760)       
1 45358U 20018A   21243.38025339 -.00000067  00000-0  00000-0 0  9995
2 45358  64.9139  13.3468 0008012 234.3738  99.0699  2.13102714 11347
